NORAD_CAT_ID,OBJECT_NAME,OBJECT_TYPE,EPOCH,MEAN_MOTION,ECCENTRICITY,INCLINATION,RA_OF_ASC_NODE,ARG_OF_PERICENTER,MEAN_ANOMALY,BSTAR,MEAN_MOTION_DOT,MEAN_MOTION_DDOT,TLE_LINE0,TLE_LINE1,TLE_LINE2,SEMIMAJOR_AXIS,PERIOD,APOGEE,PERIGEE,DECAYED
52338.0,STARLINK-3815,PAYLOAD,2024-08-20 04:44:25,15.18647455,0.0006257,53.2127,209.2621,73.6153,286.5531,0.00084602,0.0001747,0.0,0 STARLINK-3815,1 52338U 22045H   24233.19752293  .00017470  00000-0  84602-3 0  9998,2 52338  53.2127 209.2621 0006257  73.6153 286.5531 15.18647455130459,6888.064,94.821,514.239,505.62,0.0
52338.0,STARLINK-3815,PAYLOAD,2024-08-20 07:53:57,15.18666483,0.0006304,53.2141,208.6607,70.1034,290.0641,0.0009393,0.00019448,0.0,0 STARLINK-3815,1 52338U 22045H   24233.32913202  .00019448  00000-0  93930-3 0  9993,2 52338  53.2141 208.6607 0006304  70.1034 290.0641 15.18666483130471,6888.007,94.82,514.214,505.53,0.0
52338.0,STARLINK-3815,PAYLOAD,2024-08-21 04:25:41,15.18845579,0.000651,53.2131,204.7612,75.7087,284.4632,0.0011271,0.00023537,0.0,0 STARLINK-3815,1 52338U 22045H   24234.18451112  .00023537  00000-0  11271-2 0  9996,2 52338  53.2131 204.7612 0006510  75.7087 284.4632 15.18845579130608,6887.465,94.809,513.814,504.847,0.0
52338.0,STARLINK-3815,PAYLOAD,2024-08-21 07:35:11,15.18858398,0.000626,53.2136,204.1567,80.2003,279.97,0.0011592,0.00024227,0.0,0 STARLINK-3815,1 52338U 22045H   24234.31610706  .00024227  00000-0  11592-2 0  9990,2 52338  53.2136 204.1567 0006260  80.2003 279.9700 15.18858398130627,6887.427,94.808,513.603,504.98,0.0
52338.0,STARLINK-3815,PAYLOAD,2024-08-21 21:47:54,15.18961376,0.0006333,53.2141,201.461,75.5522,284.6177,0.00085646,0.00017854,0.0,0 STARLINK-3815,1 52338U 22045H   24234.90827313  .00017854  00000-0  85646-3 0  9999,2 52338  53.2141 201.4610 0006333  75.5522 284.6177 15.18961376130718,6887.115,94.802,513.342,504.619,0.0
52338.0,STARLINK-3815,PAYLOAD,2024-08-22 04:06:51,15.19002955,0.0006393,53.2141,200.2587,80.2577,279.9142,0.0010477,0.00021952,0.0,0 STARLINK-3815,1 52338U 22045H   24235.17142872  .00021952  00000-0  10477-2 0  9992,2 52338  53.2141 200.2587 0006393  80.2577 279.9142 15.19002955130750,6886.99,94.799,513.257,504.452,0.0
